[{"OBJECT_NAME":"YAOGAN-4","OBJECT_ID":"2008-061A","EPOCH":"2026-03-09T17:16:46.672032","MEAN_MOTION":14.82978423,"ECCENTRICITY":0.00153383,"INCLINATION":97.9248,"RA_OF_ASC_NODE":3.0166,"ARG_OF_PERICENTER":39.2204,"MEAN_ANOMALY":321.0118,"EPHEMERIS_TYPE":0,"CLASSIFICATION_TYPE":"U","NORAD_CAT_ID":33446,"ELEMENT_SET_NO":999,"REV_AT_EPOCH":93092,"BSTAR":0.00022773961,"MEAN_MOTION_DOT":1.799e-5,"MEAN_MOTION_DDOT":0},{"OBJECT_NAME":"FENGYUN 1C DEB","OBJECT_ID":"1999-025BPE","EPOCH":"2026-03-09T18:26:54.503232","MEAN_MOTION":14.78648757,"ECCENTRICITY":0.00200285,"INCLINATION":99.0642,"RA_OF_ASC_NODE":358.9756,"ARG_OF_PERICENTER":319.3641,"MEAN_ANOMALY":40.6071,"EPHEMERIS_TYPE":0,"CLASSIFICATION_TYPE":"U","NORAD_CAT_ID":31296,"ELEMENT_SET_NO":999,"REV_AT_EPOCH":98632,"BSTAR":0.0057442422,"MEAN_MOTION_DOT":0.00042417,"MEAN_MOTION_DDOT":0}]
